SL-16 R/B               
1 22803U 93059B   26102.00293309  .00000175  00000+0  11050-3 0  9990
2 22803  70.9898 300.8768 0016552 166.7881 193.3679 14.17238593684252
ARIANE 40 R/B           
1 22830U 93061H   26102.14719962  .00000141  00000+0  67424-4 0  9996
2 22830  98.4859 170.3645 0010841 178.9189 181.2021 14.32879461698893
COSMOS 2278             
1 23087U 94023A   26102.26218585  .00000279  00000+0  17060-3 0  9990
2 23087  71.0503 104.8574 0009645 325.4151  34.6344 14.14377810649551
SL-16 R/B               
1 23088U 94023B   26102.15209926 -.00000170  00000+0 -62924-4 0  9990
2 23088  71.0031   0.6142 0005639 257.1419 102.9073 14.15019939650825
SL-16 R/B               
1 23343U 94074B   26102.33118292  .00000289  00000+0  45299-4 0  9990
2 23343  97.7058 131.7787 0008030 108.3045 263.7396 14.79446926692228
SL-16 R/B               
1 23405U 94077B   26102.19133844  .00000047  00000+0  48448-4 0  9997
2 23405  70.9811 282.0069 0001200 169.8665 190.2482 14.15566777620972
ARIANE 40+ R/B          
1 23561U 95021B   26102.16799556  .00000185  00000+0  72793-4 0  9998
2 23561  98.4443 173.1875 0007526  50.0714 337.7828 14.39797149624060
SL-16 R/B               
1 23705U 95058B   26102.27064034  .00000310  00000+0  18293-3 0  9990
2 23705  71.0187 109.7530 0010541  64.2558 295.9652 14.15500835572609
SL-16 R/B               
1 24298U 96051B   26102.23939260  .00000053  00000+0  55574-4 0  9998
2 24298  70.7579 104.2268 0012729  91.5311 268.7267 14.12424749526386
ORBVIEW 2 (SEASTAR)     
1 24883U 97037A   26102.01399416  .00000197  00000+0  84636-4 0  9992
2 24883  98.8625 267.2189 0001650 350.7708   9.3446 14.35518990513259
SL-16 R/B               
1 25400U 98043G   26102.26958233  .00000032  00000+0  32622-4 0  9997
2 25400  98.8307  55.8830 0008774 278.4932  81.5253 14.26057754443778
SL-16 R/B               
1 25407U 98045B   26102.26506442  .00000241  00000+0  14569-3 0  9998
2 25407  71.0088 110.9663 0008703 320.3047  39.7438 14.16197625431854
ISS (ZARYA)             
1 25544U 98067A   26101.94100262  .00005402  00000+0  10657-3 0  9996
2 25544  51.6326 267.9482 0006451 301.5882  58.4476 15.48877690561489
CZ-4B R/B               
1 25732U 99025C   26102.09846542  .00000031  00000+0  35907-4 0  9994
2 25732  98.6561 145.5780 0036052 248.0952 138.0909 14.18272111392903
OKEAN-O                 
1 25860U 99039A   26102.11007790  .00000428  00000+0  62846-4 0  9990
2 25860  97.9375 161.6502 0001104 113.5827 246.5502 14.80389790439332
SL-16 R/B               
1 25861U 99039B   26102.12611437  .00000382  00000+0  55126-4 0  9993
2 25861  97.9899 161.1608 0015614 144.8146 215.4100 14.81778880441816
DELTA 2 R/B             
1 25876U 99041E   26102.13756355  .00000660  00000+0  14613-3 0  9996
2 25876  51.7601 167.6611 0502567  87.0624 278.7683 14.11913333367758
