[{"OBJECT_NAME":"SL-16 R/B","OBJECT_ID":"1993-059B","EPOCH":"2026-04-12T00:04:13.418976","MEAN_MOTION":14.17238593,"ECCENTRICITY":0.00165526,"INCLINATION":70.9898,"RA_OF_ASC_NODE":300.8768,"ARG_OF_PERICENTER":166.7881,"MEAN_ANOMALY":193.3679,"EPHEMERIS_TYPE":0,"CLASSIFICATION_TYPE":"U","NORAD_CAT_ID":22803,"ELEMENT_SET_NO":999,"REV_AT_EPOCH":68425,"BSTAR":0.00011050237,"MEAN_MOTION_DOT":1.75e-6,"MEAN_MOTION_DDOT":0},{"OBJECT_NAME":"ARIANE 40 R/B","OBJECT_ID":"1993-061H","EPOCH":"2026-04-12T03:31:58.047168","MEAN_MOTION":14.32879461,"ECCENTRICITY":0.00108417,"INCLINATION":98.4859,"RA_OF_ASC_NODE":170.3645,"ARG_OF_PERICENTER":178.9189,"MEAN_ANOMALY":181.2021,"EPHEMERIS_TYPE":0,"CLASSIFICATION_TYPE":"U","NORAD_CAT_ID":22830,"ELEMENT_SET_NO":999,"REV_AT_EPOCH":69889,"BSTAR":6.7423937e-5,"MEAN_MOTION_DOT":1.41e-6,"MEAN_MOTION_DDOT":0},{"OBJECT_NAME":"COSMOS 2278","OBJECT_ID":"1994-023A","EPOCH":"2026-04-12T06:17:32.857440","MEAN_MOTION":14.1437781,"ECCENTRICITY":0.00096459,"INCLINATION":71.0503,"RA_OF_ASC_NODE":104.8574,"ARG_OF_PERICENTER":325.4151,"MEAN_ANOMALY":34.6344,"EPHEMERIS_TYPE":0,"CLASSIFICATION_TYPE":"U","NORAD_CAT_ID":23087,"ELEMENT_SET_NO":999,"REV_AT_EPOCH":64955,"BSTAR":0.00017059759,"MEAN_MOTION_DOT":2.79e-6,"MEAN_MOTION_DDOT":0},{"OBJECT_NAME":"SL-16 R/B","OBJECT_ID":"1994-023B","EPOCH":"2026-04-12T03:39:01.376064","MEAN_MOTION":14.15019939,"ECCENTRICITY":0.00056394,"INCLINATION":71.0031,"RA_OF_ASC_NODE":0.6142,"ARG_OF_PERICENTER":257.1419,"MEAN_ANOMALY":102.9073,"EPHEMERIS_TYPE":0,"CLASSIFICATION_TYPE":"U","NORAD_CAT_ID":23088,"ELEMENT_SET_NO":999,"REV_AT_EPOCH":65082,"BSTAR":-6.2923837e-5,"MEAN_MOTION_DOT":-1.7e-6,"MEAN_MOTION_DDOT":0},{"OBJECT_NAME":"SL-16 R/B","OBJECT_ID":"1994-074B","EPOCH":"2026-04-12T07:56:54.204288","MEAN_MOTION":14.79446926,"ECCENTRICITY":0.00080307,"INCLINATION":97.7058,"RA_OF_ASC_NODE":131.7787,"ARG_OF_PERICENTER":108.3045,"MEAN_ANOMALY":263.7396,"EPHEMERIS_TYPE":0,"CLASSIFICATION_TYPE":"U","NORAD_CAT_ID":23343,"ELEMENT_SET_NO":999,"REV_AT_EPOCH":69222,"BSTAR":4.5298718e-5,"MEAN_MOTION_DOT":2.89e-6,"MEAN_MOTION_DDOT":0},{"OBJECT_NAME":"SL-16 R/B","OBJECT_ID":"1994-077B","EPOCH":"2026-04-12T04:35:31.641216","MEAN_MOTION":14.15566777,"ECCENTRICITY":0.00012005,"INCLINATION":70.9811,"RA_OF_ASC_NODE":282.0069,"ARG_OF_PERICENTER":169.8665,"MEAN_ANOMALY":190.2482,"EPHEMERIS_TYPE":0,"CLASSIFICATION_TYPE":"U","NORAD_CAT_ID":23405,"ELEMENT_SET_NO":999,"REV_AT_EPOCH":62097,"BSTAR":4.8447743e-5,"MEAN_MOTION_DOT":4.7e-7,"MEAN_MOTION_DDOT":0},{"OBJECT_NAME":"ARIANE 40+ R/B","OBJECT_ID":"1995-021B","EPOCH":"2026-04-12T04:01:54.816384","MEAN_MOTION":14.39797149,"ECCENTRICITY":0.00075269,"INCLINATION":98.4443,"RA_OF_ASC_NODE":173.1875,"ARG_OF_PERICENTER":50.0714,"MEAN_ANOMALY":337.7828,"EPHEMERIS_TYPE":0,"CLASSIFICATION_TYPE":"U","NORAD_CAT_ID":23561,"ELEMENT_SET_NO":999,"REV_AT_EPOCH":62406,"BSTAR":7.2793478e-5,"MEAN_MOTION_DOT":1.85e-6,"MEAN_MOTION_DDOT":0},{"OBJECT_NAME":"SL-16 R/B","OBJECT_ID":"1995-058B","EPOCH":"2026-04-12T06:29:43.325376","MEAN_MOTION":14.15500835,"ECCENTRICITY":0.00105416,"INCLINATION":71.0187,"RA_OF_ASC_NODE":109.753,"ARG_OF_PERICENTER":64.2558,"MEAN_ANOMALY":295.9652,"EPHEMERIS_TYPE":0,"CLASSIFICATION_TYPE":"U","NORAD_CAT_ID":23705,"ELEMENT_SET_NO":999,"REV_AT_EPOCH":57260,"BSTAR":0.0001829299,"MEAN_MOTION_DOT":3.1e-6,"MEAN_MOTION_DDOT":0},{"OBJECT_NAME":"SL-16 R/B","OBJECT_ID":"1996-051B","EPOCH":"2026-04-12T05:44:43.520640","MEAN_MOTION":14.12424749,"ECCENTRICITY":0.0012729,"INCLINATION":70.7579,"RA_OF_ASC_NODE":104.2268,"ARG_OF_PERICENTER":91.5311,"MEAN_ANOMALY":268.7267,"EPHEMERIS_TYPE":0,"CLASSIFICATION_TYPE":"U","NORAD_CAT_ID":24298,"ELEMENT_SET_NO":999,"REV_AT_EPOCH":52638,"BSTAR":5.5573677e-5,"MEAN_MOTION_DOT":5.3e-7,"MEAN_MOTION_DDOT":0},{"OBJECT_NAME":"ORBVIEW 2 (SEASTAR)","OBJECT_ID":"1997-037A","EPOCH":"2026-04-12T00:20:09.095424","MEAN_MOTION":14.3551899,"ECCENTRICITY":0.00016504,"INCLINATION":98.8625,"RA_OF_ASC_NODE":267.2189,"ARG_OF_PERICENTER":350.7708,"MEAN_ANOMALY":9.3446,"EPHEMERIS_TYPE":0,"CLASSIFICATION_TYPE":"U","NORAD_CAT_ID":24883,"ELEMENT_SET_NO":999,"REV_AT_EPOCH":51325,"BSTAR":8.4635734e-5,"MEAN_MOTION_DOT":1.97e-6,"MEAN_MOTION_DDOT":0},{"OBJECT_NAME":"SL-16 R/B","OBJECT_ID":"1998-043G","EPOCH":"2026-04-12T06:28:11.913312","MEAN_MOTION":14.26057754,"ECCENTRICITY":0.00087743,"INCLINATION":98.8307,"RA_OF_ASC_NODE":55.883,"ARG_OF_PERICENTER":278.4932,"MEAN_ANOMALY":81.5253,"EPHEMERIS_TYPE":0,"CLASSIFICATION_TYPE":"U","NORAD_CAT_ID":25400,"ELEMENT_SET_NO":999,"REV_AT_EPOCH":44377,"BSTAR":3.2621667e-5,"MEAN_MOTION_DOT":3.2e-7,"MEAN_MOTION_DDOT":0},{"OBJECT_NAME":"SL-16 R/B","OBJECT_ID":"1998-045B","EPOCH":"2026-04-12T06:21:41.565888","MEAN_MOTION":14.16197625,"ECCENTRICITY":0.00087035,"INCLINATION":71.0088,"RA_OF_ASC_NODE":110.9663,"ARG_OF_PERICENTER":320.3047,"MEAN_ANOMALY":39.7438,"EPHEMERIS_TYPE":0,"CLASSIFICATION_TYPE":"U","NORAD_CAT_ID":25407,"ELEMENT_SET_NO":999,"REV_AT_EPOCH":43185,"BSTAR":0.00014568918,"MEAN_MOTION_DOT":2.41e-6,"MEAN_MOTION_DDOT":0},{"OBJECT_NAME":"ISS (ZARYA)","OBJECT_ID":"1998-067A","EPOCH":"2026-04-11T22:35:02.626368","MEAN_MOTION":15.4887769,"ECCENTRICITY":0.00064516,"INCLINATION":51.6326,"RA_OF_ASC_NODE":267.9482,"ARG_OF_PERICENTER":301.5882,"MEAN_ANOMALY":58.4476,"EPHEMERIS_TYPE":0,"CLASSIFICATION_TYPE":"U","NORAD_CAT_ID":25544,"ELEMENT_SET_NO":999,"REV_AT_EPOCH":56148,"BSTAR":0.00010656761,"MEAN_MOTION_DOT":5.402e-5,"MEAN_MOTION_DDOT":0},{"OBJECT_NAME":"CZ-4B R/B","OBJECT_ID":"1999-025C","EPOCH":"2026-04-12T02:21:47.412288","MEAN_MOTION":14.18272111,"ECCENTRICITY":0.00360528,"INCLINATION":98.6561,"RA_OF_ASC_NODE":145.578,"ARG_OF_PERICENTER":248.0952,"MEAN_ANOMALY":138.0909,"EPHEMERIS_TYPE":0,"CLASSIFICATION_TYPE":"U","NORAD_CAT_ID":25732,"ELEMENT_SET_NO":999,"REV_AT_EPOCH":39290,"BSTAR":3.5906536e-5,"MEAN_MOTION_DOT":3.1e-7,"MEAN_MOTION_DDOT":0},{"OBJECT_NAME":"OKEAN-O","OBJECT_ID":"1999-039A","EPOCH":"2026-04-12T02:38:30.730560","MEAN_MOTION":14.8038979,"ECCENTRICITY":0.00011046,"INCLINATION":97.9375,"RA_OF_ASC_NODE":161.6502,"ARG_OF_PERICENTER":113.5827,"MEAN_ANOMALY":246.5502,"EPHEMERIS_TYPE":0,"CLASSIFICATION_TYPE":"U","NORAD_CAT_ID":25860,"ELEMENT_SET_NO":999,"REV_AT_EPOCH":43933,"BSTAR":6.2845976e-5,"MEAN_MOTION_DOT":4.28e-6,"MEAN_MOTION_DDOT":0},{"OBJECT_NAME":"SL-16 R/B","OBJECT_ID":"1999-039B","EPOCH":"2026-04-12T03:01:36.281568","MEAN_MOTION":14.8177888,"ECCENTRICITY":0.0015614,"INCLINATION":97.9899,"RA_OF_ASC_NODE":161.1608,"ARG_OF_PERICENTER":144.8146,"MEAN_ANOMALY":215.41,"EPHEMERIS_TYPE":0,"CLASSIFICATION_TYPE":"U","NORAD_CAT_ID":25861,"ELEMENT_SET_NO":999,"REV_AT_EPOCH":44181,"BSTAR":5.512617e-5,"MEAN_MOTION_DOT":3.82e-6,"MEAN_MOTION_DDOT":0},{"OBJECT_NAME":"DELTA 2 R/B","OBJECT_ID":"1999-041E","EPOCH":"2026-04-12T03:18:05.490720","MEAN_MOTION":14.11913333,"ECCENTRICITY":0.05025674,"INCLINATION":51.7601,"RA_OF_ASC_NODE":167.6611,"ARG_OF_PERICENTER":87.0624,"MEAN_ANOMALY":278.7683,"EPHEMERIS_TYPE":0,"CLASSIFICATION_TYPE":"U","NORAD_CAT_ID":25876,"ELEMENT_SET_NO":999,"REV_AT_EPOCH":36775,"BSTAR":0.00014612894,"MEAN_MOTION_DOT":6.6e-6,"MEAN_MOTION_DDOT":0}]
